#dP2024  6 11  0  0  0.00000000      96 __u+U IGS20 EXT  IAC
## 2318 172800.00000000   900.00000000 60472 0.0000000000000
+   54   G02G03G04G05G06G07G08G09G10G11G12G13G14G15G16G17G18
+        G19G20G21G22G23G24G25G26G27G28G29G30G31G32R01R02R03
+        R04R05R07R08R09R11R12R13R14R15R16R17R18R19R20R21R22
+        R24R25R26  0  0  0  0  0  0  0  0  0  0  0  0  0  0
+          0  0  0  0  0  0  0  0  0  0  0  0  0  0  0  0  0
++         8  7  7  8  7  7  7  8  7  8  7  8  7  9  7  8  9
++         8  9  7  8  9  8  8  8  9  8  7  9  7  8  8  7  7
++         7  8  7  8  8  8  8  8  7  7  8  9  9  8 10  8  7
++         9  7  8  0  0  0  0  0  0  0  0  0  0  0  0  0  0
++         0  0  0  0  0  0  0  0  0  0  0  0  0  0  0  0  0
%c M  cc GPS ccc cccc cccc cccc cccc ccccc ccccc ccccc ccccc
%c cc cc ccc ccc cccc cccc cccc cccc ccccc ccccc ccccc ccccc
%f  0.0000000  0.000000000  0.00000000000  0.000000000000000
%f  0.0000000  0.000000000  0.00000000000  0.000000000000000
%i    0    0    0    0      0      0      0      0         0
%i    0    0    0    0      0      0      0      0         0
/* IAC                                ULTRA-RAPID PREDICTION
/* S/V CLOCKS ARE ALIGNED TO GNSS TIME                      
/* G:C1WC2W R:C1PC2P E:C1XC5X C:C2IC6I J:C1CC2S             
/* PCV:IGS20_2317 OL/AL:FES2004  NONE     YN ORB:CoN CLK:CoN
*  2024 06 11  1  0  0.00000000
PG02 -14722.709542   4354.359822  22137.771108   -420.007867
PG03 -22931.973190  12285.328165   4859.144960    407.633810
PG04 -21034.467114   2027.518305 -16156.177692    380.542651
PG05  19915.456754   -232.994904 -17794.899708   -175.886713
PG06   5198.758098  25544.564681  -4710.670995    225.386956
PG07  -6599.138327  22145.415605 -12148.574480    -96.613267
PG08 -25338.319852  -5289.693810   6766.830872    223.745014
PG09 -10461.055872  11885.453467 -21413.168762    230.020209
PG10   2119.612170 -17664.388847  19818.110090    -40.265106
PG11  12032.041740  17317.089194 -16160.790207   -682.773820
PG12  23881.618459  -9388.745842   6469.041527   -513.045742
PG13  22680.546037  14049.837465    538.563439    657.046042
PG14  -6168.046449  19190.248828  17223.213291    422.447928
PG15  25675.933280   2434.843246   6247.712576    168.788352
PG16 -18302.238236  -4712.128389 -19167.192079   -267.690138
PG17   3374.621411  17433.552009  20120.273221    696.294593
PG18   6479.285304 -22620.280592 -12106.916761   -623.287899
PG19  12924.145926  18695.920205  13890.844632    494.674913
PG20  13406.728625   7998.428568 -21414.303270    373.971319
PG21 -15894.751626  -2510.563866  21699.108423    116.231840
PG22   1352.102938  16435.661447  21294.804229    -25.671112
PG23  13373.838537 -19766.884550  11464.580789    247.324885
PG24  15491.543624  -2038.764690  21066.091799   -476.841208
PG25  20186.273758 -16937.693097  -2226.370375    497.161671
PG26  -7591.343487 -14240.515724 -21212.164312    138.987683
PG27 -22977.691825 -13271.717843  -3975.599393    -27.759330
PG28  -4881.345237 -26021.368748  -2141.800368   -283.357627
PG29  14028.863167  -8605.579620 -20923.392794   -594.771274
PG30    656.096825  26271.144603  -2511.206541   -376.262850
PG31 -10614.759925 -20641.365593 -12760.921641   -227.459967
PG32  -7040.839511 -17555.237787  18939.191262   -616.584064
PR01 -24982.322760   1686.267372  -4819.472871     88.022976
PR02 -14894.789014   7962.732024 -19093.598727    -23.228708
PR03   3950.437248  10850.949896 -22690.067280    101.834155
PR04  19993.729861   7652.469817 -13830.753620    240.522314
PR05  25374.305776    515.208439   2473.311015    132.898648
PR07  -4880.942211 -10863.525352  22605.109896     84.309659
PR08 -20211.554537  -7520.040297  13709.199403     -4.830211
PR09  14222.993767 -21071.859499   2607.522601    191.538645
PR11  -6196.641206 -10218.858919 -22523.612581     21.810721
PR12 -15781.883560   8516.633222 -18115.452151     41.167481
PR13 -15285.684541  19751.508413  -5195.278750    -48.233285
PR14  -4994.580730  20720.298353  14012.568518     26.561723
PR15   7349.172179   8857.688198  22786.351811     78.936601
PR16  15611.961923  -8436.686321  18354.972683     26.377556
PR17   7488.229979  23067.377952   7976.710102     94.740213
PR18  13847.926024  19612.376836  -8540.775652    146.409417
PR19  13517.206681   8273.141022 -19996.113190   -279.878455
PR20   4683.737885 -12993.406422 -21452.845587   -114.285038
PR21  -7137.206027 -23038.314772  -8267.350929   -108.230137
PR22 -13760.515391 -19232.283426   9598.101784    104.142976
PR24  -4175.246929  13827.592465  21039.502209    -59.355999
PR25  -6621.344163 -23402.144600  -7656.035625    -44.800293
PR26 -19312.876893  -7814.722078  14720.438364     -6.572502
*  2024 06 11  1 15  0.00000000
PG02 -15248.138116   1982.539804  22147.390011   -420.001536
PG03 -22461.029252  11689.762447   7649.829076    407.650101
PG04 -22536.101260   1155.972305 -14099.712836    380.550021
PG05  18392.771480   1196.486860 -19336.206622   -175.887898
PG06   5063.712881  25943.400491  -1824.127718    225.368112
PG07  -7071.425839  20578.414260 -14384.889645    -96.603116
PG08 -25838.804306  -5732.214761   4040.103619    223.761660
PG09 -12669.573630  10963.575632 -20702.222107    230.033256
PG10   3892.011432 -18882.645594  18327.529111    -40.272328
PG11  12003.637235  19057.225252 -14099.748492   -682.781191
PG12  23240.691011  -8674.460065   9139.331101   -513.048656
PG13  22507.705060  14187.166442  -2322.179762    657.048460
PG14  -7801.733320  20124.061075  15373.703758    422.456185
PG15  26198.520344   2882.393066   3528.286816    168.792109
PG16 -16500.829409  -5954.251635 -20398.846081   -267.680823
PG17   1291.155733  16506.990476  21152.760290    696.289953
PG18   6831.941761 -21126.269925 -14410.046208   -623.292380
PG19  11340.343063  18006.376280  15965.638954    494.679807
PG20  11752.436833   9844.251046 -21628.562509    373.970987
PG21 -16390.192426  -4793.559215  21009.256849    116.229773
PG22   -620.599123  17605.717900  20380.433240    -25.675566
PG23  14399.903660 -20351.105392   8889.921720    247.333159
PG24  16031.345267    393.179698  20798.135388   -476.843577
PG25  20419.988722 -16734.208200    622.055377    497.162183
PG26  -5769.454376 -15774.445589 -20656.921534    138.982162
PG27 -22369.329046 -13249.700742  -6723.389758    -27.760534
PG28  -4642.652995 -26142.045484    712.758374   -283.372838
PG29  16061.164757  -7488.115927 -19873.101020   -594.769793
PG30    253.697028  25851.674097  -5282.428382   -376.257303
PG31 -10501.951132 -21967.463542 -10338.803168   -227.459748
PG32  -4970.871598 -16825.180830  20211.925306   -616.583082
PR01 -25379.999605   1834.487762  -1638.071016     88.023872
PR02 -17138.710321   8003.554299 -17099.907262    -23.228907
PR03   1116.034824  10779.608980 -23041.568662    101.834656
PR04  18133.467012   7462.323248 -16277.527558    240.523684
PR05  25484.646394    339.489801   -753.312505    132.899080
PR07  -2074.036580 -10779.168997  23069.593282     84.310295
PR08 -18382.915559  -7353.187158  16162.467716     -4.830631
PR09  13890.699409 -20673.158089   5732.956905    191.540452
PR11  -4850.983879 -12591.977233 -21636.721407     21.809534
PR12 -14515.397398   6534.090830 -19905.822104     41.167795
PR13 -14762.322481  19096.943375  -8258.045982    -48.233652
PR14  -5699.951194  22117.690903  11349.595477     26.561674
PR15   5955.237893  11245.686412  22128.937415     78.936204
PR16  14334.052263  -6438.791694  20120.065123     26.377807
PR17   7086.405453  21958.715715  10924.398226     94.743226
PR18  14423.222827  20288.584810  -5449.955371    146.410871
PR19  14666.552219  10333.060074 -18141.730663   -279.879802
PR20   5807.682139 -10519.484079 -22504.629650   -114.285794
PR21  -6732.104545 -21891.161029 -11206.661569   -108.233050
PR22 -14328.985719 -20061.828947   6591.377018    104.139248
PR24  -5398.743374  11462.205848  22152.197083    -59.357416
PR25  -6242.615555 -22331.647886 -10605.168844    -44.828750
PR26 -17356.481514  -7667.157697  17055.270356     -6.571862
EOF
